FLOCK 4G-5              
1 62663U 25009BG  26068.45638436  .00011278  00000+0  40688-3 0  9997
2 62663  97.4058 151.2478 0002094 314.5072  45.5996 15.28679529 63699
STARLINK-34143          
1 63896U 25095G   26068.32864415  .00040432  00000+0  14703-2 0  9997
2 63896  42.9961 178.1631 0000330 216.7211 143.3618 15.27591094 47738
